{
  "type": "FeatureCollection",
  "features": [
    {
      "type": "Feature",
      "properties": {
        "norad_id": 66683,
        "name": "TRANSPORTER-15T",
        "group": "last-30-days",
        "lat": 44.17049440149404,
        "lon": 64.82151256836809,
        "alt_km": 514.3624067966684,
        "timestamp": "2025-12-26T14:28:46.394784+00:00",
        "meta_object_name": "TRANSPORTER-15T",
        "meta_object_id": "2025-276T",
        "meta_epoch": "2025-12-26T06:22:05.614464",
        "meta_mean_motion": 15.17068217,
        "meta_eccentricity": 0.0004856,
        "meta_inclination": 97.4443,
        "meta_ra_of_asc_node": 71.7871,
        "meta_arg_of_pericenter": 226.3125,
        "meta_mean_anomaly": 133.7706,
        "meta_ephemeris_type": 0,
        "meta_classification_type": "U",
        "meta_norad_cat_id": 66683,
        "meta_element_set_no": 999,
        "meta_rev_at_epoch": 417,
        "meta_bstar": 0.00041504256,
        "meta_mean_motion_dot": 8.156e-05,
        "meta_mean_motion_ddot": 0,
        "tle_line1": "1 66683U 25276T   25360.26534276  .00008156  00000+0  41504-3 0  9998",
        "tle_line2": "2 66683  97.4443  71.7871 0004856 226.3125 133.7706 15.17068217  4174"
      },
      "geometry": {
        "type": "Point",
        "coordinates": [
          64.82151256836809,
          44.17049440149404
        ]
      }
    },
    {
      "type": "Feature",
      "properties": {
        "norad_id": 66684,
        "name": "TRANSPORTER-15U",
        "group": "last-30-days",
        "lat": 65.00783927786134,
        "lon": 55.84064588242708,
        "alt_km": 510.3122346066002,
        "timestamp": "2025-12-26T14:28:46.394822+00:00",
        "meta_object_name": "TRANSPORTER-15U",
        "meta_object_id": "2025-276U",
        "meta_epoch": "2025-12-26T04:41:35.589984",
        "meta_mean_motion": 15.17399931,
        "meta_eccentricity": 0.00046333,
        "meta_inclination": 97.4469,
        "meta_ra_of_asc_node": 71.736,
        "meta_arg_of_pericenter": 225.144,
        "meta_mean_anomaly": 134.9418,
        "meta_ephemeris_type": 0,
        "meta_classification_type": "U",
        "meta_norad_cat_id": 66684,
        "meta_element_set_no": 999,
        "meta_rev_at_epoch": 416,
        "meta_bstar": 0.00056907919,
        "meta_mean_motion_dot": 0.00011319,
        "meta_mean_motion_ddot": 0,
        "tle_line1": "1 66684U 25276U   25360.19555081  .00011319  00000+0  56908-3 0  9997",
        "tle_line2": "2 66684  97.4469  71.7360 0004633 225.1440 134.9418 15.17399931  4168"
      },
      "geometry": {
        "type": "Point",
        "coordinates": [
          55.84064588242708,
          65.00783927786134
        ]
      }
    },
    {
      "type": "Feature",
      "properties": {
        "norad_id": 66685,
        "name": "TRANSPORTER-15V",
        "group": "last-30-days",
        "lat": 73.07947879702154,
        "lon": 46.6766669750985,
        "alt_km": 508.94603007858404,
        "timestamp": "2025-12-26T14:28:46.394833+00:00",
        "meta_object_name": "TRANSPORTER-15V",
        "meta_object_id": "2025-276V",
        "meta_epoch": "2025-12-26T03:04:19.749504",
        "meta_mean_motion": 15.17397324,
        "meta_eccentricity": 0.00032136,
        "meta_inclination": 97.4413,
        "meta_ra_of_asc_node": 71.6542,
        "meta_arg_of_pericenter": 231.2605,
        "meta_mean_anomaly": 128.8342,
        "meta_ephemeris_type": 0,
        "meta_classification_type": "U",
        "meta_norad_cat_id": 66685,
        "meta_element_set_no": 999,
        "meta_rev_at_epoch": 415,
        "meta_bstar": -0.0041618973,
        "meta_mean_motion_dot": -0.00082255,
        "meta_mean_motion_ddot": 0,
        "tle_line1": "1 66685U 25276V   25360.12800636 -.00082255  00000+0 -41619-2 0  9991",
        "tle_line2": "2 66685  97.4413  71.6542 0003213 231.2605 128.8342 15.17397324  4154"
      },
      "geometry": {
        "type": "Point",
        "coordinates": [
          46.6766669750985,
          73.07947879702154
        ]
      }
    },
    {
      "type": "Feature",
      "properties": {
        "norad_id": 66686,
        "name": "TRANSPORTER-15W",
        "group": "last-30-days",
        "lat": 65.19356759418993,
        "lon": 55.689536715618445,
        "alt_km": 517.0959380304557,
        "timestamp": "2025-12-26T14:28:46.394846+00:00",
        "meta_object_name": "TRANSPORTER-15W",
        "meta_object_id": "2025-276W",
        "meta_epoch": "2025-12-24T16:18:47.855520",
        "meta_mean_motion": 15.18035485,
        "meta_eccentricity": 0.00181838,
        "meta_inclination": 97.4405,
        "meta_ra_of_asc_node": 70.2223,
        "meta_arg_of_pericenter": 243.6801,
        "meta_mean_anomaly": 116.2566,
        "meta_ephemeris_type": 0,
        "meta_classification_type": "U",
        "meta_norad_cat_id": 66686,
        "meta_element_set_no": 999,
        "meta_rev_at_epoch": 393,
        "meta_bstar": 0.0029615296,
        "meta_mean_motion_dot": 0.00060911,
        "meta_mean_motion_ddot": 0,
        "tle_line1": "1 66686U 25276W   25358.67972055  .00060911  00000+0  29615-2 0  9999",
        "tle_line2": "2 66686  97.4405  70.2223 0018183 243.6801 116.2566 15.18035485  3936"
      },
      "geometry": {
        "type": "Point",
        "coordinates": [
          55.689536715618445,
          65.19356759418993
        ]
      }
    },
    {
      "type": "Feature",
      "properties": {
        "norad_id": 66687,
        "name": "TRANSPORTER-15X",
        "group": "last-30-days",
        "lat": 15.64468843235539,
        "lon": 69.98703078259025,
        "alt_km": 511.3291340224914,
        "timestamp": "2025-12-26T14:28:46.394857+00:00",
        "meta_object_name": "TRANSPORTER-15X",
        "meta_object_id": "2025-276X",
        "meta_epoch": "2025-12-26T06:29:37.824288",
        "meta_mean_motion": 15.16793442,
        "meta_eccentricity": 0.00081022,
        "meta_inclination": 97.4384,
        "meta_ra_of_asc_node": 71.7574,
        "meta_arg_of_pericenter": 43.1354,
        "meta_mean_anomaly": 317.0513,
        "meta_ephemeris_type": 0,
        "meta_classification_type": "U",
        "meta_norad_cat_id": 66687,
        "meta_element_set_no": 999,
        "meta_rev_at_epoch": 417,
        "meta_bstar": 0.0006798998,
        "meta_mean_motion_dot": 0.00013314,
        "meta_mean_motion_ddot": 0,
        "tle_line1": "1 66687U 25276X   25360.27057667  .00013314  00000+0  67990-3 0  9996",
        "tle_line2": "2 66687  97.4384  71.7574 0008102  43.1354 317.0513 15.16793442  4176"
      },
      "geometry": {
        "type": "Point",
        "coordinates": [
          69.98703078259025,
          15.64468843235539
        ]
      }
    },
    {
      "type": "Feature",
      "properties": {
        "norad_id": 66688,
        "name": "TRANSPORTER-15Y",
        "group": "last-30-days",
        "lat": 54.17889436703559,
        "lon": 61.68316898441299,
        "alt_km": 511.9960667582136,
        "timestamp": "2025-12-26T14:28:46.394869+00:00",
        "meta_object_name": "TRANSPORTER-15Y",
        "meta_object_id": "2025-276Y",
        "meta_epoch": "2025-12-25T12:54:40.837824",
        "meta_mean_motion": 15.17117879,
        "meta_eccentricity": 0.0003764,
        "meta_inclination": 97.4426,
        "meta_ra_of_asc_node": 71.0715,
        "meta_arg_of_pericenter": 234.2435,
        "meta_mean_anomaly": 125.8449,
        "meta_ephemeris_type": 0,
        "meta_classification_type": "U",
        "meta_norad_cat_id": 66688,
        "meta_element_set_no": 999,
        "meta_rev_at_epoch": 406,
        "meta_bstar": 0.00056854,
        "meta_mean_motion_dot": 0.00011216,
        "meta_mean_motion_ddot": 0,
        "tle_line1": "1 66688U 25276Y   25359.53797266  .00011216  00000+0  56854-3 0  9996",
        "tle_line2": "2 66688  97.4426  71.0715 0003764 234.2435 125.8449 15.17117879  4062"
      },
      "geometry": {
        "type": "Point",
        "coordinates": [
          61.68316898441299,
          54.17889436703559
        ]
      }
    },
    {
      "type": "Feature",
      "properties": {
        "norad_id": 66689,
        "name": "TRANSPORTER-15Z",
        "group": "last-30-days",
        "lat": -72.83482225951948,
        "lon": 97.23570791112235,
        "alt_km": 430.50162278312746,
        "timestamp": "2025-12-26T14:28:46.394880+00:00",
        "meta_object_name": "TRANSPORTER-15Z",
        "meta_object_id": "2025-276Z",
        "meta_epoch": "2025-12-22T21:27:46.425312",
        "meta_mean_motion": 15.23073772,
        "meta_eccentricity": 0.00272271,
        "meta_inclination": 97.4409,
        "meta_ra_of_asc_node": 68.4858,
        "meta_arg_of_pericenter": 260.8557,
        "meta_mean_anomaly": 98.9599,
        "meta_ephemeris_type": 0,
        "meta_classification_type": "U",
        "meta_norad_cat_id": 66689,
        "meta_element_set_no": 999,
        "meta_rev_at_epoch": 366,
        "meta_bstar": 0.086131248,
        "meta_mean_motion_dot": 0.02294864,
        "meta_mean_motion_ddot": 0,
        "tle_line1": "1 66689U 25276Z   25356.89428733  .02294864  00000+0  86131-1 0  9996",
        "tle_line2": "2 66689  97.4409  68.4858 0027227 260.8557  98.9599 15.23073772  3663"
      },
      "geometry": {
        "type": "Point",
        "coordinates": [
          97.23570791112235,
          -72.83482225951948
        ]
      }
    }
  ]
}